{"type": "FeatureCollection", "features": [{"type": "Feature", "geometry": {"type": "GeometryCollection", "geometries": [{"type": "Polygon", "coordinates": [[[45.02997, 27.69656], [45.026, 27.7017], [45.02556, 27.7021], [45.02095, 27.70188], [45.01663, 27.69901], [45.01183, 27.6966], [45.00799, 27.69612], [45.00127, 27.69757], [44.99551, 27.69901], [44.99215, 27.69901], [44.98591, 27.69564], [44.98351, 27.69276], [44.97871, 27.6846], [44.96863, 27.67212], [44.95999, 27.66252], [44.94847, 27.65148], [44.93983, 27.64476], [44.93263, 27.64092], [44.92495, 27.63948], [44.91918, 27.639], [44.91246, 27.63996], [44.90382, 27.64092], [44.89971, 27.64137], [44.8991, 27.6408], [44.89035, 27.63616], [44.8819, 27.63152], [44.87426, 27.62715], [44.872727, 27.625999], [44.880974, 27.621552], [44.88345, 27.620217], [44.895859, 27.616281], [44.938883, 27.602633], [44.972703, 27.580313], [44.989467, 27.56925], [44.977837, 27.538364], [44.886012, 27.512333], [44.838899, 27.450943], [44.83176, 27.315314], [44.895444, 27.288881], [44.875887, 27.126034], [44.875412, 27.125958], [44.676144, 27.094024], [44.454808, 26.988052], [44.47311, 26.904859], [44.499827, 26.84637], [44.462279, 26.850703], [44.406588, 26.871827], [44.378518, 26.882474], [44.329416, 26.873809], [44.345302, 26.807378], [44.340969, 26.74239], [44.346024, 26.642743], [44.34458, 26.58281], [44.345067, 26.582689], [44.382128, 26.573423], [44.384421, 26.560854], [44.38363, 26.56048], [44.383486, 26.560456], [44.383396, 26.560053], [44.395767, 26.55857], [44.396154, 26.553019], [44.377568, 26.535739], [44.376416, 26.531638], [44.367425, 26.508993], [44.385075, 26.474027], [44.393486, 26.468584], [44.390706, 26.380002], [44.382236, 26.331443], [44.441594, 26.304543], [44.471274, 26.209936], [44.525331, 26.191978], [44.525314, 26.191912], [44.522285, 26.190151], [44.518595, 26.188053], [44.516852, 26.187052], [44.51618, 26.186667], [44.521635, 26.178286], [44.523481, 26.17545], [44.52039, 26.173674], [44.515104, 26.170637], [44.517655, 26.163542], [44.520273, 26.156259], [44.515389, 26.155149], [44.50388, 26.112516], [44.567724, 26.027391], [44.534155, 26.01466], [44.539707, 26.004675], [44.549822, 25.987538], [44.555044, 25.976958], [44.561772, 25.964008], [44.573572, 25.945465], [44.577551, 25.938313], [44.592278, 25.914118], [44.601451, 25.901175], [44.613704, 25.879149], [44.616813, 25.873013], [44.621551, 25.863662], [44.634533, 25.843268], [44.651368, 25.846785], [44.697107, 25.853383], [44.698128, 25.853521], [44.770245, 25.757367], [44.800083, 25.717583], [44.787913, 25.68337], [44.7171, 25.4843], [44.716371, 25.484618], [44.622294, 25.525624], [44.451637, 25.600009], [44.450433, 25.600533], [44.428842, 25.573664], [44.428744, 25.573839], [44.3887, 25.5382], [44.382694, 25.524231], [44.376167, 25.519922], [44.369247, 25.52162], [44.365069, 25.5194], [44.347314, 25.522534], [44.320159, 25.516136], [44.29222, 25.509086], [44.275623, 25.508675], [44.256119, 25.512445], [44.251879, 25.513264], [44.227278, 25.50483], [44.22752, 25.50423], [44.22758, 25.5041], [44.23391, 25.50212], [44.23511, 25.501145], [44.23909, 25.49791], [44.23975, 25.49493], [44.23659, 25.49143], [44.23426, 25.4891], [44.2344, 25.48506], [44.2344, 25.48074], [44.234146, 25.480113], [44.217151, 25.487153], [44.208665, 25.492898], [44.199396, 25.493028], [44.191171, 25.494987], [44.181298, 25.497613], [44.180596, 25.493028], [44.173415, 25.489242], [44.16506, 25.485978], [44.155921, 25.483889], [44.145403, 25.479802], [44.136405, 25.476142], [44.132249, 25.471986], [44.120278, 25.462988], [44.111236, 25.452869], [44.067133, 25.434283], [44.009315, 25.3467], [44.009269, 25.34663], [44.000667, 25.3336], [43.946527, 25.367989], [43.920653, 25.360778], [43.867714, 25.333852], [43.864742, 25.333858], [43.796804, 25.345594], [43.78819, 25.339], [43.786909, 25.334025], [43.76725, 25.333983], [43.765564, 25.33229], [43.763493, 25.330212], [43.736112, 25.281499], [43.729831, 25.263605], [43.737131, 25.229917], [43.744513, 25.209476], [43.714412, 25.207831], [43.710795, 25.20764], [43.71027, 25.2026], [43.710209, 25.202597], [43.701846, 25.18571], [43.70095, 25.1839], [43.616717, 25.167033], [43.567317, 25.1836], [43.566328, 25.18506], [43.565713, 25.185969], [43.562287, 25.19103], [43.555598, 25.200911], [43.53365, 25.233333], [43.484204, 25.209032], [43.484118, 25.20899], [43.467217, 25.200683], [43.451727, 25.181236], [43.450294, 25.181326], [43.44911, 25.1814], [43.438828, 25.185136], [43.399133, 25.145441], [43.370422, 25.134164], [43.36879, 25.13342], [43.367143, 25.13397], [43.34393, 25.132592], [43.255977, 25.067921], [43.283938, 25.033931], [43.283333, 25.0335], [43.265028, 25.030945], [43.158808, 25.048835], [43.14691, 25.050739], [43.137392, 25.052642], [43.105623, 24.984692], [43.103128, 24.979355], [43.107648, 24.948762], [43.103288, 24.937438], [43.1008, 24.934317], [43.133517, 24.914446], [43.17134, 24.933051], [43.202602, 24.927068], [43.207171, 24.927068], [43.209645, 24.924784], [43.2122